#aV2010  5  1  0  0   .00000000      96 DD+AD WGS84 FIT  NGA
## 1581 518400.00000000   900.00000000 55317  .0000000000000
+   31     1  2  3  4  5  6  7  8  9 10 11 12 13 14 15 16 17
+         18 19 20 21 22 23 24 26 27 28 29 30 31 32  0  0  0
+          0  0  0  0  0  0  0  0  0  0  0  0  0  0  0  0  0
+          0  0  0  0  0  0  0  0  0  0  0  0  0  0  0  0  0
+          0  0  0  0  0  0  0  0  0  0  0  0  0  0  0  0  0
++         0  0  0  0  0  0  0  0  0  0  0  0  0  0  0  0  0
++         0  0  0  0  0  0  0  0  0  0  0  0  0  0  0  0  0
++         0  0  0  0  0  0  0  0  0  0  0  0  0  0  0  0  0
++         0  0  0  0  0  0  0  0  0  0  0  0  0  0  0  0  0
++         0  0  0  0  0  0  0  0  0  0  0  0  0  0  0  0  0
%c cc cc ccc ccc cccc cccc cccc cccc ccccc ccccc ccccc ccccc
%c cc cc ccc ccc cccc cccc cccc cccc ccccc ccccc ccccc ccccc
%f  0.0000000  0.000000000  0.00000000000  0.000000000000000
%f  0.0000000  0.000000000  0.00000000000  0.000000000000000
%i    0    0    0    0      0      0      0      0         0
%i    0    0    0    0      0      0      0      0         0
/*      NGA, ST. LOUIS,MO.                                  
/*   EPHEMERIS COMPUTED FROM  3 DAYS OF DATA                
/* CCCCCCCCCCCCCCCCCCCCCCCCCCCCCCCCCCCCCCCCCCCCCCCCCCCCCCCCC
/* CCCCCCCCCCCCCCCCCCCCCCCCCCCCCCCCCCCCCCCCCCCCCCCCCCCCCCCCC
*  2010  5  1 17 15   .00000000                                                 
P  1   2316.701295 -17812.063708 -19645.692050   -115.299705                    
V  1  21345.124660 -12520.490468  14089.965720      -.040663                    
P  2  13939.007435  14321.345746 -17736.884944    251.688171                    
V  2   -188.174268  22426.440597  17534.079367       .035499                    
P  3 -24770.889280 -10059.345264  -1223.577951    549.260021                    
V  3   2285.225351  -2969.457470 -30710.505585       .051059                    
P  4   6494.147229  24570.808658  -7214.203265     72.384284                    
V  4  -3107.914062   9223.810662  29664.713504       .084458                    
P  5  19091.465735   2864.654549 -18298.162873     -2.207378                    
V  5 -18570.211855  13938.649024 -17126.725653      -.005277                    
P  6 -22727.977355 -13299.057731  -3824.436409    651.958410                    
V  6   6066.735811  -1117.767119 -30558.112307      -.103787                    
P  7  -7063.390723  22569.562296 -11934.971490      -.066852                    
V  7  -2927.274452 -15055.230770 -26920.395869      -.003920                    
P  8   -454.590553  26264.136208     59.982762      5.176444                    
V  8  -2237.118723     53.717787 -32812.401911       .001646                    
P  9  14125.031219  -4289.455424  21537.946769      4.005659                    
V  9   2607.381621  28482.631832   3913.261839       .021913                    
P 10  11979.443189  10505.313643 -21473.343798    -41.595704                    
V 10 -22638.547145  14380.945307  -5298.752252      -.007760                    
P 11 -14097.220864   9689.091676  20005.950968    -59.890115                    
V 11  -8593.137601 -24971.507681   6327.324288      -.023378                    
P 12  23524.157095 -11320.726156   4477.260338   -120.289797                    
V 12  -3373.325091   5203.344228  31391.179378       .043558                    
P 13 -10828.070454  10310.243917 -22092.553226    304.852587                    
V 13 -23564.149369 -14421.962819   4827.795308      -.003260                    
P 14  -9298.911844 -18306.876370  17054.143255     40.539601                    
V 14  19070.447227   9532.042258  20671.961869       .044725                    
P 15  24587.876304   5008.891841   8901.678689   -279.226927                    
V 15   8932.192040   7361.581112 -28740.651047       .053447                    
P 16 -14549.971274  -7774.492363 -20831.544569    -67.151906                    
V 16  22231.643878 -14355.482039  -9878.633919      -.038035                    
P 17   8702.111460  18421.336189  17252.500866    147.991818                    
V 17 -19798.008326  -8861.957518  19356.768007       .025511                    
P 18  14009.262891 -19012.707226  12033.605861     65.465246                    
V 18  14473.748101  -5231.824131 -26059.579282       .024700                    
P 19 -23883.487697  -6125.637602  10303.229748    -31.896904                    
V 19  -9809.681081  -8751.804455 -27735.918381      -.026470                    
P 20 -22475.982971  13959.756035   1830.096135     56.818009                    
V 20      5.155902  -4373.640984  31153.774663      -.006043                    
P 21   4713.831025 -24554.281835  -7627.497308    -57.212117                    
V 21   4428.154798  10172.877287 -29411.518273      -.025764                    
P 22   2502.341870 -18202.203230  19310.868465    173.177001                    
V 22  21571.606447 -11295.498281 -13643.847851      -.010123                    
P 23 -18873.240671   4397.954643 -18330.373463    372.366632                    
V 23 -19898.990149 -11765.509205  17385.899646      -.013061                    
P 24   1203.011628 -26620.598666  -1695.743532    283.671244                    
V 24   2945.440687   2240.141852 -31242.181687       .032331                    
P 26  18448.724651  -3103.770443  18464.854753    -46.271270                    
V 26  20482.404207  13282.899715 -17294.652449      -.047984                    
P 27  15150.499878   -679.524542  22492.922743    148.037414                    
V 27   2815.566317  26712.967764   -979.636860       .035143                    
P 28  -5031.858243  18224.327259  19011.193149    -17.262194                    
V 28 -20598.834376  10823.036671 -16520.939187       .009097                    
P 29  11596.918069 -10635.475495 -21297.741162    116.756712                    
V 29  23624.290496  13641.811014   6062.482260       .028248                    
P 30  18325.540890 -18327.604161  -6066.122186    238.694731                    
V 30   7531.176442  -1870.727402  30424.139568       .035372                    
P 31  -7302.665663 -23689.407306  -9081.327703    -39.044084                    
V 31   1701.123655 -11957.531492  29328.968069       .021726                    
P 32 -24108.815704   5054.712806   9822.915334     39.063674                    
V 32   9384.547726  -8103.465312  28519.086948      -.084921                    
EOF
